      2.10          N: GNSS NAV DATA                        RINEX VERSION / TYPE
fic2rin                                 11/02/2023 00:17:43 PGM / RUN BY / DATE
                                                            END OF HEADER
4  23 11  1  2  0  0.0  .200388953090D-03  .105728759081D-10  .000000000000D+00
     .400000000000D+01 -.465625000000D+01  .459662003910D-08  .102806838514D+01
    -.135973095894D-06  .265138561372D-02  .650249421597D-05  .515360380936D+04
     .266400000000D+06  .931322574615D-08  .162451571002D+01  .875443220139D-07
     .963162671546D+00  .254781250000D+03 -.305755932414D+01 -.792568727955D-08
     .371086885830D-09  .100000000000D+01  .228600000000D+04  .000000000000D+00
     .240000000000D+01  .000000000000D+00 -.419095158577D-08  .400000000000D+01
     .259200000000D+06  .400000000000D+01
2  23 11  1  2  0  0.0 -.534848775715D-03  .488853402203D-11  .000000000000D+00
     .750000000000D+02 -.843437500000D+02  .440625496678D-08  .181283846514D+01
    -.477023422718D-05  .161551465280D-01  .138394534588D-05  .515374059868D+04
     .266400000000D+06  .249594449997D-06 -.586429633457D+00 -.117346644402D-06
     .967716169377D+00  .350187500000D+03 -.132326404415D+01 -.812676708390D-08
    -.396802242692D-09  .100000000000D+01  .228600000000D+04  .000000000000D+00
     .240000000000D+01  .000000000000D+00 -.176951289177D-07  .750000000000D+02
     .259200000000D+06  .400000000000D+01
1  23 11  1  2  0  0.0  .163283199072D-03 -.227373675443D-12  .000000000000D+00
     .740000000000D+02 -.917500000000D+02  .400623830448D-08 -.816262326271D+00
    -.473298132420D-05  .128981533926D-01  .335089862347D-05  .515363433456D+04
     .266400000000D+06  .279396772385D-07 -.484378908394D+00  .324100255966D-06
     .990609457786D+00  .329000000000D+03  .990431110517D+00 -.813462455405D-08
    -.366800993019D-09  .100000000000D+01  .228600000000D+04  .000000000000D+00
     .240000000000D+01  .630000000000D+02  .512227416039D-08  .740000000000D+02
     .259200000000D+06  .400000000000D+01
3  23 11  1  2  0  0.0 -.436790287495D-04  .243289832724D-10  .000000000000D+00
     .680000000000D+02 -.851562500000D+02  .367158150754D-08 -.201028555735D+01
    -.433437526226D-05  .509795220569D-02  .102482736111D-04  .515357918930D+04
     .266400000000D+06  .875443220139D-07  .544299683284D+00 -.521540641785D-07
     .981469922436D+00  .195187500000D+03  .111736355150D+01 -.743745265690D-08
     .216437586923D-09  .100000000000D+01  .228600000000D+04  .000000000000D+00
     .240000000000D+01  .000000000000D+00  .186264514923D-08  .680000000000D+02
     .259200000000D+06  .400000000000D+01
31 23 11  1 18  0  0.0 -.225301366299D-03 -.454747350886D-12  .000000000000D+00
     .560000000000D+02 -.728125000000D+01  .500985153757D-08 -.269932469645D+00
    -.264495611191D-06  .105781017337D-01  .703893601894D-05  .515363564682D+04
     .324000000000D+06  .167638063431D-07  .265901309201D+01  .130385160446D-06
     .954503861317D+00  .240125000000D+03  .614332586812D+00 -.821641367518D-08
    -.383944564261D-09  .100000000000D+01  .228600000000D+04  .000000000000D+00
     .240000000000D+01  .000000000000D+00 -.130385160446D-07  .560000000000D+02
     .316800000000D+06  .400000000000D+01
29 23 11  1 18  0  0.0 -.610227696598D-03  .000000000000D+00  .000000000000D+00
     .460000000000D+02  .816562500000D+02  .420267505829D-08 -.294899345538D+01
     .418163836002D-05  .253899837844D-02  .339373946190D-05  .515369513130D+04
     .324000000000D+06 -.558793544769D-08 -.147599307052D+01  .316649675369D-07
     .974064040100D+00  .322750000000D+03  .257927020285D+01 -.803712049261D-08
     .107147320259D-11  .100000000000D+01  .228600000000D+04  .000000000000D+00
     .240000000000D+01  .000000000000D+00 -.977888703346D-08  .460000000000D+02
     .316800000000D+06  .400000000000D+01
27 23 11  1 18  0  0.0 -.638444907963D-04 -.545696821064D-11  .000000000000D+00
     .230000000000D+02  .922187500000D+02  .432089426830D-08 -.276741663392D+01
     .481866300106D-05  .117503476795D-01  .309571623802D-05  .515367030716D+04
     .324000000000D+06  .484287738800D-07 -.155732565570D+01 -.949949026108D-07
     .965020817425D+00  .322437500000D+03  .741798441374D+00 -.795640284469D-08
     .118933525487D-09  .100000000000D+01  .228600000000D+04  .000000000000D+00
     .240000000000D+01  .000000000000D+00  .139698386192D-08  .230000000000D+02
     .316800000000D+06  .400000000000D+01
24 23 11  1 18  0  0.0 -.360893551260D-03 -.932232069317D-11  .000000000000D+00
     .510000000000D+02 -.121250000000D+02  .555666002862D-08  .160907282347D+01
    -.707805156708D-06  .147695296910D-01  .699609518051D-05  .515362375069D+04
     .324000000000D+06 -.419095158577D-06  .254498058658D+01 -.298023223877D-07
     .933994106798D+00  .233812500000D+03  .937206761212D+00 -.845570935709D-08
    -.232152527227D-09  .100000000000D+01  .228600000000D+04  .000000000000D+00
     .240000000000D+01  .000000000000D+00  .232830643654D-08  .510000000000D+02
     .316800000000D+06  .400000000000D+01
30 23 11  1 18  0  0.0 -.472718384117D-03  .386535248253D-11  .000000000000D+00
     .500000000000D+02 -.953125000000D+01  .545558438985D-08  .485885345361D+00
    -.430271029472D-06  .659134064335D-02  .688619911671D-05  .515373618889D+04
     .324000000000D+06 -.186264514923D-08  .264211164249D+01  .335276126862D-07
     .935575642664D+00  .231250000000D+03 -.255122452867D+01 -.840142138149D-08
    -.392516349881D-09  .100000000000D+01  .228600000000D+04  .000000000000D+00
     .240000000000D+01  .000000000000D+00  .372529029846D-08  .500000000000D+02
     .316800000000D+06  .400000000000D+01
21 23 11  1 18  0  0.0  .145364552736D-03 -.909494701773D-12  .000000000000D+00
     .350000000000D+02 -.630000000000D+02  .423660504303D-08 -.283168588306D+01
    -.282935798168D-05  .248368594330D-01  .135041773319D-05  .515376405716D+04
     .324000000000D+06 -.128522515297D-06 -.592861030950D+00  .266358256340D-06
     .961987591376D+00  .352187500000D+03 -.690181294833D+00 -.789925760721D-08
    -.921466954226D-10  .100000000000D+01  .228600000000D+04  .000000000000D+00
     .240000000000D+01  .000000000000D+00 -.102445483208D-07  .350000000000D+02
     .316800000000D+06  .400000000000D+01
26 23 11  1 18  0  0.0  .219519250095D-03 -.250111042988D-11  .000000000000D+00
     .370000000000D+02  .648750000000D+02  .494627746088D-08 -.104447984927D+01
     .333413481712D-05  .844379304908D-02  .933930277824D-05  .515377871323D+04
     .324000000000D+06  .221654772758D-06 -.267285145732D+01 -.130385160446D-07
     .932996749231D+00  .185656250000D+03  .487466522812D+00 -.807712215884D-08
    -.369301097159D-09  .100000000000D+01  .228600000000D+04  .000000000000D+00
     .240000000000D+01  .000000000000D+00  .698491930962D-08  .370000000000D+02
     .316800000000D+06  .400000000000D+01
13 23 11  1 18  0  0.0  .590585172176D-03  .420641299570D-11  .000000000000D+00
     .260000000000D+02 -.117187500000D+02  .453911764390D-08  .307129665302D+01
    -.713393092155D-06  .766670762096D-02  .715628266335D-05  .515365849304D+04
     .324000000000D+06  .223517417908D-07  .172892029661D+01 -.147148966789D-06
     .969997312167D+00  .247562500000D+03  .951492110906D+00 -.771603568957D-08
     .394302138552D-09  .100000000000D+01  .228600000000D+04  .000000000000D+00
     .240000000000D+01  .000000000000D+00 -.116415321827D-07  .260000000000D+02
     .316800000000D+06  .400000000000D+01
16 23 11  1 18  0  0.0 -.429438427091D-03  .636646291241D-11  .000000000000D+00
     .580000000000D+02  .923437500000D+02  .421124684391D-08 -.185873516312D+01
     .471062958241D-05  .135739932302D-01  .900216400623D-05  .515368247032D+04
     .324000000000D+06  .191852450371D-06 -.251201423529D+01 -.115483999252D-06
     .963943912225D+00  .207812500000D+03  .799711811778D+00 -.757960143511D-08
    -.163578242262D-09  .100000000000D+01  .228600000000D+04  .000000000000D+00
     .240000000000D+01  .000000000000D+00 -.102445483208D-07  .580000000000D+02
     .316800000000D+06  .400000000000D+01
22 23 11  1 18  0  0.0  .918693840504D-04 -.704858393874D-11  .000000000000D+00
     .740000000000D+02  .101281250000D+03  .414124392800D-08 -.226650443836D+01
     .519677996635D-05  .150987347588D-01  .102128833532D-04  .515373492813D+04
     .324000000000D+06  .689178705215D-07 -.250871137004D+01  .262632966042D-06
     .963218821267D+00  .184093750000D+03 -.117147504212D+01 -.751995609350D-08
    -.400016662300D-09  .100000000000D+01  .228600000000D+04  .000000000000D+00
     .340000000000D+01  .000000000000D+00 -.111758708954D-07  .740000000000D+02
     .316800000000D+06  .400000000000D+01
15 23 11  1 18  0  0.0  .928957015276D-04  .375166564481D-11  .000000000000D+00
     .580000000000D+02 -.175312500000D+02  .520200239857D-08  .237866736520D+01
    -.102631747723D-05  .155180201400D-01  .753812491894D-05  .515379393768D+04
     .324000000000D+06  .160187482834D-06  .144355048195D+01 -.236555933952D-06
     .933186688663D+00  .219218750000D+03  .126297378443D+01 -.794747390133D-08
     .494306304127D-09  .100000000000D+01  .228600000000D+04  .000000000000D+00
     .240000000000D+01  .000000000000D+00 -.107102096081D-07  .580000000000D+02
     .316800000000D+06  .400000000000D+01
25 23 11  1 18  0  0.0  .475466717035D-03  .170530256582D-11  .000000000000D+00
     .580000000000D+02  .678125000000D+02  .470126725522D-08 -.272801146668D+00
     .360608100891D-05  .113628176041D-01  .947900116444D-05  .515366265297D+04
     .324000000000D+06 -.521540641785D-07 -.261424796848D+01  .158324837685D-06
     .952197164274D+00  .191531250000D+03  .105530694840D+01 -.816784022333D-08
    -.362872257943D-09  .100000000000D+01  .228600000000D+04  .000000000000D+00
     .240000000000D+01  .000000000000D+00  .558793544769D-08  .580000000000D+02
     .316800000000D+06  .400000000000D+01
